429P/LINEAR-Hill,e,7.5220,322.0735,75.5356,3.550646,0.1473136,0.49129681,4.6938,02/03.0/2022,2000,g 15.5,4.0
# From MPEC 2021-Y10
430P/Scotti,e,4.4748,54.6725,94.5005,3.106994,0.1799673,0.49964389,11.2982,02/03.0/2022,2000,g 16.5,4.0
# From MPEC 2021-Y10
431P/Scotti,e,22.3919,202.8460,199.8553,3.472622,0.1523063,0.47772215,358.4216,02/03.0/2022,2000,g 14.0,4.0
# From MPEC 2021-U31
432P/PANSTARRS,e,10.0687,239.1442,105.2514,3.035928,0.1863232,0.24212538,29.1765,02/03.0/2022,2000,g 17.0,4.0
# From MPEC 2022-A21
434P/Tenagra,e,6.3398,288.9672,128.0472,4.127628,0.1175312,0.27428602,11.7778,02/03.0/2022,2000,g 13.0,4.0
# From MPEC 2021-W31
435P/PANSTARRS,e,18.8825,98.5502,244.1524,3.018501,0.1879391,0.31875495,35.8073,02/03.0/2022,2000,g 17.0,4.0
# From MPEC 2022-A21
436P/Garradd,e,20.2101,87.1905,282.5957,5.930093,0.0682514,0.66988462,3.8559,02/03.0/2022,2000,g 14.5,4.0
# From MPEC 2021-Y10
437P/PANSTARRS,e,3.6897,245.8688,206.7051,4.558362,0.1012723,0.25406459,340.1106,02/03.0/2022,2000,g 13.0,4.0
# From MPEC 2021-W47
438P/Christensen,e,8.2885,260.1563,58.9339,3.846710,0.1306381,0.41579992,87.3489,02/03.0/2022,2000,g 14.5,4.0
# From MPEC 2021-X81
439P/LINEAR,e,7.1144,56.4181,341.9931,3.487351,0.1513424,0.46945222,24.3517,02/03.0/2022,2000,g 17.2,4.0
# From MPEC 2021-AG4
440P/Kobayashi,e,12.3396,328.8822,183.3201,8.584228,0.0391879,0.76046429,357.8465,02/03.0/2022,2000,g 15.0,2.0
# From MPC107687
1I/`Oumuamua,h,09/09.4886/2017,122.6778,24.5997,241.6845,1.199252,0.255240,2000,23.0,2.0
# From MPEC 2020-K19
2I/Borisov,h,12/08.5549/2019,44.0527,308.1480,209.1251,3.356636,2.006548,2000,11.0,4.0
